BEESAT-4                
1 41619U 16040W   21058.44053345  .00002615  00000-0  10756-3 0  9992
2 41619  97.2855 117.5632 0010810   9.9071 350.2378 15.24974854248247
CAS-2T & KS-1Q          
1 41847U 16066G   21058.75938494  .00000160  00000-0  34432-4 0  9995
2 41847  98.6175 117.3582 0365408 187.5932 171.9631 14.38151302226118
NAYIF-1 (EO-88)         
1 42017U 17008BX  21058.73146003  .00002626  00000-0  10004-3 0  9994
2 42017  97.3289 128.2721 0007436 129.4221 230.7677 15.27572505224502
ZHUHAI-1 02 (CAS-4B)    
1 42759U 17034B   21058.89371582  .00000505  00000-0  43818-4 0  9999
2 42759  43.0176  63.3493 0009439 207.1077 225.6071 15.10087474204586
ZHUHAI-1 01 (CAS-4A)    
1 42761U 17034D   21058.89066003  .00000514  00000-0  44299-4 0  9995
2 42761  43.0182  62.4938 0009779 208.0983 224.4396 15.10168571204588
MAX VALIER SAT          
1 42778U 17036P   21058.81008000  .00001490  00000-0  65697-4 0  9999
2 42778  97.2712 110.9468 0011588 195.0647 165.0247 15.23249930204595
RADFXSAT (FOX-1B)       
1 43017U 17073E   21058.69865017  .00001117  00000-0  92250-4 0  9993
2 43017  97.7152 327.0043 0254415 298.5950  58.9878 14.79349742176892
FOX-1D (AO-92)          
1 43137U 18004AC  21058.75933089  .00001757  00000-0  73609-4 0  9990
2 43137  97.4174 133.8889 0007638 230.4355 129.6209 15.24851994173938
DIWATA-2B               
1 43678U 18084H   21058.84922318  .00000553  00000-0  60637-4 0  9991
2 43678  97.9067 183.6793 0011264  58.2203 302.0111 14.91715905127098
ES'HAIL 2               
1 43700U 18090A   21058.81539059  .00000138  00000-0  00000+0 0  9999
2 43700   0.0251 153.0516 0002390 223.7183 100.4216  1.00269101  8513
FOX-1CLIFF (AO-95)      
1 43770U 18099N   21058.43498712  .00000223  00000-0  25452-4 0  9991
2 43770  97.6771 130.9997 0015916  68.2295 292.0618 14.95210484122014
ITASAT 1                
1 43786U 18099AE  21058.71088110 -.00000017  00000-0  36209-5 0  9991
2 43786  97.6787 131.8715 0016383  60.9147 299.3713 14.95519032122084
JY1SAT (JO-97)          
1 43803U 18099AX  21058.42439508  .00000725  00000-0  70059-4 0  9995
2 43803  97.6752 131.3573 0016491  62.2964 297.9928 14.95743155122048
UWE-4                   
1 43880U 18111E   21058.74918139  .00000822  00000-0  76841-4 0  9995
2 43880  97.6935 328.3223 0013684 109.6220 250.6480 14.96737668116672
PSAT2 (NO-104)          
1 44354U 19036R   21058.53733088  .00019587  00000-0  26976-3 0  9995
2 44354  28.5289 138.1718 0339365 166.9557 194.0069 15.09895529 92310
BRICSAT2 (NO-103)       
1 44355U 19036S   21058.81421521  .00037275  00000-0  45121-3 0  9990
2 44355  28.5284 106.9849 0293193 217.7026 140.2684 15.21815551 92652
JAISAT-1                
1 44419U 19038F   21058.43421140  .00001994  00000-0  11488-3 0  9996
2 44419  97.5750  23.6616 0020506 336.1193  23.9085 15.13422889 91156
DUCHIFAT-3              
1 44854U 19089C   21058.25072410  .00000855  00000-0  74959-4 0  9995
2 44854  36.9680  32.2804 0009152 322.6615  37.3499 14.99346647 66550
RS-44 & BREEZE-KM R/B   
1 44909U 19096E   21058.46805006  .00000002  00000-0 -33962-4 0  9996
2 44909  82.5244 185.8778 0217099 350.5519   9.1526 12.79708552 54775
ORBITAL FACTORY 2 (OF-2)
1 45113U 19071C   21058.47047507  .00003936  00000-0  12549-3 0  9997
2 45113  51.6414 210.4417 0011808 255.1856 104.7818 15.34884849 60274
HUSKYSAT-1              
1 45119U 19071J   21058.81159575  .00004145  00000-0  13119-3 0  9997
2 45119  51.6412 208.2178 0011219 252.6838 107.2917 15.34983003 60321
BY70-2                  
1 45857U 20042B   21058.88768558  .00001519  00000-0  22415-3 0  9991
2 45857  97.9920 135.7676 0011203 198.0386 162.0407 14.76721535 35373
SALSAT                  
1 46495U 20068K   21058.57565344  .00000980  00000-0  76488-4 0  9993
2 46495  97.6838 356.7878 0017849  81.4376 278.8871 15.03350409 22828
BY70-3                  
1 46839U 20079N   21058.81288749  .00004347  00000-0  13915-3 0  9991
2 46839  97.2522 134.8523 0006103 228.8175 238.8053 15.32902233 17409
RADFXSAT-2 (AO-109)     
1 47311U 21002C   21058.48003214  .00001522  00000-0  79275-4 0  9993
2 47311  60.6872 342.7602 0018264 330.4434  29.5618 15.21287837  6138
